STARLINK-30716          
1 57936U 23148B   26068.26184277 -.00000498  00000+0 -46818-5 0  9991
2 57936  53.1622  26.4173 0001251 100.2139 259.9003 15.30191740138358
NUSAT-49 (KLARA DAN VO*)
1 60500U 24149AJ  26068.79810190  .00012912  00000+0  43568-3 0  9991
2 60500  97.3807 150.7380 0001132 286.7761  73.3356 15.30828857 86935
