[{"OBJECT_NAME":"STARLINK-30716","OBJECT_ID":"2023-148B","EPOCH":"2026-03-09T06:17:03.215328","MEAN_MOTION":15.3019174,"ECCENTRICITY":0.00012512,"INCLINATION":53.1622,"RA_OF_ASC_NODE":26.4173,"ARG_OF_PERICENTER":100.2139,"MEAN_ANOMALY":259.9003,"EPHEMERIS_TYPE":0,"CLASSIFICATION_TYPE":"U","NORAD_CAT_ID":57936,"ELEMENT_SET_NO":999,"REV_AT_EPOCH":13835,"BSTAR":-4.681835e-6,"MEAN_MOTION_DOT":-4.98e-6,"MEAN_MOTION_DDOT":0},{"OBJECT_NAME":"NUSAT-49 (KLARA DAN VON NEUMANN)","OBJECT_ID":"2024-149AJ","EPOCH":"2026-03-09T19:09:16.004160","MEAN_MOTION":15.30828857,"ECCENTRICITY":0.00011321,"INCLINATION":97.3807,"RA_OF_ASC_NODE":150.738,"ARG_OF_PERICENTER":286.7761,"MEAN_ANOMALY":73.3356,"EPHEMERIS_TYPE":0,"CLASSIFICATION_TYPE":"U","NORAD_CAT_ID":60500,"ELEMENT_SET_NO":999,"REV_AT_EPOCH":8693,"BSTAR":0.00043568345,"MEAN_MOTION_DOT":0.00012912,"MEAN_MOTION_DDOT":0}]
